{
"type": "FeatureCollection",
"name": "Gigup_2022_wgs84",
"crs": { "type": "name", "properties": { "name": "urn:ogc:def:crs:OGC:1.3:CRS84" } },
"features": [
{ "type": "Feature", "properties": { "Name": "Petrona Miranda Tellez", "tessellate": -1, "extrude": 0, "visibility": -1, "Id": 72, "Num": "8734-1698", "Carac_prod": "Siembra de frijoles, tequisque, queso artesanal", "Lugar": "Upala, Alajuela", "Año": "GIGUP 2023 Y 2022", "Coment": "Envio ubicación por whatsapp", "Anio": 2022 }, "geometry": { "type": "Point", "coordinates": [ -85.261083333338036, 11.041027777777261, 0.0 ] } },
{ "type": "Feature", "properties": { "Name": "Vera Teresita Ramirez Marín 1", "tessellate": -1, "extrude": 0, "visibility": -1, "Id": 79, "Num": "8895-4734 /                2229-5853", "Carac_prod": "Inveradero organico de legumbres hidroponicas, utilizan el agua de lluvia para el riego.Ganado de engorde.Problematica de movilidad ya que no hay mataderos en guana solo SJ", "Lugar": "Heredia, San Rafael", "Año": "GIGUP 2022", "Coment": "Envio ubicación por whatsapp", "Anio": 2022 }, "geometry": { "type": "Point", "coordinates": [ -85.761058000005022, 10.270134999998966, 0.0 ] } },
{ "type": "Feature", "properties": { "Name": "Vera Teresita Ramirez Marlín 2", "tessellate": -1, "extrude": 0, "visibility": -1, "Id": 80, "Num": "8895-4734 /                2229-5853", "Carac_prod": "Inveradero organico de legumbres hidroponicas, utilizan el agua de lluvia para el riego.Ganado de engorde.Problematica de movilidad ya que no hay mataderos en guana solo SJ", "Lugar": "Heredia, San Rafael", "Año": "GIGUP 2022", "Coment": "Envio ubicación por whatsapp", "Anio": 2022 }, "geometry": { "type": "Point", "coordinates": [ -84.096333333337256, 10.018749999998818, 0.0 ] } },
{ "type": "Feature", "properties": { "Name": "Vianney Valderramos Romero", "tessellate": -1, "extrude": 0, "visibility": -1, "Id": 81, "Num": "6107-8156", "Carac_prod": "Producción de leche y queso. Siembra de mora y tomáte", "Lugar": "Damita del Guarco", "Año": "GIGUP 2023 Y 2022", "Coment": "Envio ubicación por whatsapp", "Anio": 2022 }, "geometry": { "type": "Point", "coordinates": [ -83.913750000003787, 9.695555555554163, 0.0 ] } },
{ "type": "Feature", "properties": { "Name": "Xinia Ruiz García", "tessellate": -1, "extrude": 0, "visibility": -1, "Id": 82, "Num": "8870-7707", "Carac_prod": "Siembra de frijoles, maíz, arroz,mini huertas,yuca, propia marca de rosquillas, cria de cerdos, gallinas", "Lugar": "Upala, Alajuela", "Año": "GIGUP 2023 Y 2022", "Coment": "Envio ubicación por whatsapp", "Anio": 2022 }, "geometry": { "type": "Point", "coordinates": [ -85.148083333337979, 10.957416666666104, 0.0 ] } },
{ "type": "Feature", "properties": { "Name": "Yadira María Moreno Pérez 1", "tessellate": -1, "extrude": 0, "visibility": -1, "Id": 85, "Num": "8353-9804", "Carac_prod": "Cercas vivas,terneros, árboles frutales, bosque virgen para proteger lasareas, abono orgánico, reforestación de árboles,cuenta con tucanes y loras", "Lugar": "La Rita, San Antonio, Limón", "Año": "GIGUP 2023 Y 2022", "Coment": "Envio ubicación por whatsapp", "Anio": 2022 }, "geometry": { "type": "Point", "coordinates": [ -83.223777777781123, 10.02208333333216, 0.0 ] } },
{ "type": "Feature", "properties": { "Name": "Yadira María Moreno Pérez 2", "tessellate": -1, "extrude": 0, "visibility": -1, "Id": 86, "Num": "8353-9804", "Carac_prod": "Cercas vivas,terneros, árboles frutales, bosque virgen para proteger lasareas, abono orgánico, reforestación de árboles,cuenta con tucanes y loras", "Lugar": "La Rita, San Antonio, Limón", "Año": "GIGUP 2023 Y 2022", "Coment": "Envio ubicación por whatsapp", "Anio": 2022 }, "geometry": { "type": "Point", "coordinates": [ -83.128805555558813, 9.939499999998779, 0.0 ] } },
{ "type": "Feature", "properties": { "Name": "Yasmín López Arias", "tessellate": -1, "extrude": 0, "visibility": -1, "Id": 87, "Num": "8406-1573", "Carac_prod": "Cultivo de maracuya, platano, vainica. Gallinas ponedoras", "Lugar": "Guaycará, Golfito, Puntarenas", "Año": "GIGUP 2023 Y 2022", "Coment": "Envio ubicación por whatsapp", "Anio": 2022 }, "geometry": { "type": "Point", "coordinates": [ -83.037888888892098, 8.733166666664641, 0.0 ] } },
{ "type": "Feature", "properties": { "Name": "Yorleni Laguna Barrios", "tessellate": -1, "extrude": 0, "visibility": -1, "Id": 88, "Num": "8654-8429", "Carac_prod": "Siembra de chile, platano y ctia de animales", "Lugar": "México de Upala, Alajuela", "Año": "GIGUP 2023 Y 2022", "Coment": "Envio ubicación por whatsapp", "Anio": 2022 }, "geometry": { "type": "Point", "coordinates": [ -85.064638888893455, 10.996916666666127, 0.0 ] } },
{ "type": "Feature", "properties": { "Name": "Zeidy Jiménez Tabash", "tessellate": -1, "extrude": 0, "visibility": -1, "Id": 89, "Num": "8559-4047", "Carac_prod": "Tours de tortugas marinas, ecosistemas rocosos(estrellas de mar, crustacios), campañasde limpieza, venta de tablas de sur", "Lugar": "Dominical, Puntarenas", "Año": "GIGUP 2023 Y 2022", "Coment": "Envio ubicación por whatsapp", "Anio": 2022 }, "geometry": { "type": "Point", "coordinates": [ -83.8648055555593, 9.252694444442758, 0.0 ] } },
{ "type": "Feature", "properties": { "Name": "Ana Ligia Castro Albertazzi", "tessellate": -1, "extrude": 0, "visibility": -1, "Id": 2, "Num": "8815-4358", "Carac_prod": "4 ha de bandera azul: plantas medicinaes, especieas curcuma,gengibre,juanilama, morinja, tuberculos, harinas alternativas, huerta casera de hortalizas, abejas.4ha sin bandera: agricultura de tuberculos y graminias, gallinas,", "Lugar": "Siquirres, Limón", "Año": "GIGUP 2023 Y 2022", "Coment": "Envio ubicación por whatsapp", "Anio": 2022 }, "geometry": { "type": "Point", "coordinates": [ -83.59455555555914, 10.105444444443322, 0.0 ] } },
{ "type": "Feature", "properties": { "Name": "Ana Liliam Corrales Rodriguez", "tessellate": -1, "extrude": 0, "visibility": -1, "Id": 3, "Num": "8564-3936", "Carac_prod": "Vacas productoras de leche, cerdos, gallinas ponedoras y de engorde,producción de queso natilla,leche, arboles frutales,arboles en reforestación", "Lugar": "Pococcí Limón", "Año": "GIGUP 2023 Y 2022", "Coment": "Envio ubicación por whatsapp", "Anio": 2022 }, "geometry": { "type": "Point", "coordinates": [ -83.796083333337052, 10.468305555554686, 0.0 ] } },
{ "type": "Feature", "properties": { "Name": "Angélica María Quiros Mora", "tessellate": -1, "extrude": 0, "visibility": -1, "Id": 4, "Num": "8790-6840", "Carac_prod": "Tours culturales sobre la memoria, costumbres y tradiciones sobre el aporte de las personas adultas mayores en las caminatas de la calzada, huerta para el consumo de los visitantes", "Lugar": "Moravia, San Gerónimo", "Año": "GIGUP 2022", "Coment": "Envio ubicación por whatsapp", "Anio": 2022 }, "geometry": { "type": "Point", "coordinates": [ -84.022694444448305, 10.003472222221028, 0.0 ] } },
{ "type": "Feature", "properties": { "Name": "Betsi Barrantes Ramírez", "tessellate": -1, "extrude": 0, "visibility": -1, "Id": 5, "Num": "7212-4284", "Carac_prod": "Reforestación de 3mil árboles, siembra de : granos basicos, pecacuan, asociación de turismo rural", "Lugar": "Cutris, San Carlos", "Año": "GIGUP 2023 Y 2022", "Coment": "Envio ubicación por whatsapp", "Anio": 2022 }, "geometry": { "type": "Point", "coordinates": [ -84.454000000004157, 10.685166666665927, 0.0 ] } },
{ "type": "Feature", "properties": { "Name": "Casilda Jiménez Obando", "tessellate": -1, "extrude": 0, "visibility": -1, "Id": 8, "Num": "8955-0241", "Carac_prod": "Cria de tilapia, cerdo de engorde,maíz,plantas forrageras(alimentación),asociación de consentrado alternativo de animales", "Lugar": "Buenos Aires, Territorio Indígena Rey Curré", "Año": "GIGUP 2023 Y 2022", "Coment": "Envio ubicación por whatsapp", "Anio": 2022 }, "geometry": { "type": "Point", "coordinates": [ -83.366777777781195, 8.955333333331453, 0.0 ] } },
{ "type": "Feature", "properties": { "Name": "Cristina Umaña Elizondo", "tessellate": -1, "extrude": 0, "visibility": -1, "Id": 11, "Num": "8531-2902", "Carac_prod": "Finca en transición organica, siembra de café, mamon, citricos, autosostenible, compostage,gallinas, pollos, obejas, cerdos", "Lugar": "Buenos Aires, Puntarenas", "Año": "GIGUP 2023 Y 2022", "Coment": "Envio ubicación por whatsapp", "Anio": 2022 }, "geometry": { "type": "Point", "coordinates": [ -83.577166666670223, 9.284611111109445, 0.0 ] } },
{ "type": "Feature", "properties": { "Name": "Dara Arguello Larios", "tessellate": -1, "extrude": 0, "visibility": -1, "Id": 14, "Num": "6036-3218", "Carac_prod": "Proyecto de reforestación, ganaderia.Asociación de mujeres: Fincas de cacao en la escuela agroecológica, dan talleres", "Lugar": "Upala, Alajuela", "Año": "GIGUP 2023 Y 2022", "Coment": "Envio ubicación por whatsapp", "Anio": 2022 }, "geometry": { "type": "Point", "coordinates": [ -85.145250000004637, 10.995944444443902, 0.0 ] } },
{ "type": "Feature", "properties": { "Name": "Elena Garita Córdoba", "tessellate": -1, "extrude": 0, "visibility": -1, "Id": 15, "Num": "8857-1352", "Carac_prod": "Producciòn leche de cabra y subproductos de yogurt , helados artesanales de bolaita y queso , ganado de doble propòsito . Seutiliza abono orgànico, insumos naturales de control de plagas", "Lugar": "Matina, Limón", "Año": "GIGUP 2023 Y 2022", "Coment": "Envio ubicación por whatsapp", "Anio": 2022 }, "geometry": { "type": "Point", "coordinates": [ -83.385750000003441, 10.078305555554426, 0.0 ] } },
{ "type": "Feature", "properties": { "Name": "Elizabeth Del Valle", "tessellate": -1, "extrude": 0, "visibility": -1, "Id": 17, "Num": "7190-9994", "Carac_prod": "Reforestación,manejo de biomasa,Asociación de mujeres: harinas de bambu con talleres de (construcción, artesanias), individual: siembra de bambú", "Lugar": "Siquirres, Limón", "Año": "GIGUP 2023 Y 2022", "Coment": "Envio ubicación por whatsapp", "Anio": 2022 }, "geometry": { "type": "Point", "coordinates": [ -83.771888888892576, 10.211972222221169, 0.0 ] } },
{ "type": "Feature", "properties": { "Name": "Estela Miranda Tellez", "tessellate": -1, "extrude": 0, "visibility": -1, "Id": 20, "Num": "8565-2462", "Carac_prod": "Siembra de frijoles, malanga, tiquisque", "Lugar": "Upala, Alajuela", "Año": "GIGUP 2023 Y 2022", "Coment": "Envio ubicación por whatsapp", "Anio": 2022 }, "geometry": { "type": "Point", "coordinates": [ -85.260988208790081, 11.040937172315743, 0.0 ] } },
{ "type": "Feature", "properties": { "Name": "Francia Cerdas Sánchez", "tessellate": -1, "extrude": 0, "visibility": -1, "Id": 27, "Num": "8401-4861", "Carac_prod": "Siembra de cacao, banano,platano, curcuma, gengibre, plantas medicinales, árboles frutales, bambú, frijoles", "Lugar": "Siquirres Pacuarito.", "Año": "GIGUP 2023 Y 2022", "Coment": "Contesto, por relato google earth", "Anio": 2022 }, "geometry": { "type": "Point", "coordinates": [ -83.359478517983419, 10.186580520686149, 0.0 ] } },
{ "type": "Feature", "properties": { "Name": "Jennifer Marín López", "tessellate": -1, "extrude": 0, "visibility": -1, "Id": 40, "Num": "8412-3718", "Carac_prod": "Siembra de plantas ornamentales de crotom para exportación,", "Lugar": "Rio Hondo, Siquirres Limón", "Año": "GIGUP 2023 Y 2022", "Coment": "Envio ubicación por whatsapp", "Anio": 2022 }, "geometry": { "type": "Point", "coordinates": [ -83.415027777781248, 10.085083333332198, 0.0 ] } },
{ "type": "Feature", "properties": { "Name": "Jisett Rocío Vargas Hernández", "tessellate": -1, "extrude": 0, "visibility": -1, "Id": 43, "Num": "8780-9430", "Carac_prod": "Gallinas ponedoras, vacas de cría, siembra de mamón chino, pasto, ha por pago de servicios ambientales de bosques secundario, arboles de cerca viva, uso de compostaje y cuido del agua", "Lugar": "Buenos Aires, Territorio Indígena Rey Curré", "Año": "GIGUP 2023 Y 2022", "Coment": "Envio ubicación por whatsapp", "Anio": 2022 }, "geometry": { "type": "Point", "coordinates": [ -83.807416666670406, 10.48022222222135, 0.0 ] } },
{ "type": "Feature", "properties": { "Name": "Julia Atencio Zapata", "tessellate": -1, "extrude": 0, "visibility": -1, "Id": 45, "Num": "8720-1440", "Carac_prod": "Ganaderia de doble propósito, terneros,lecho,natilla, huevos, limón,proyecto de división de potreros", "Lugar": "Paso Canoas, Puntarenas", "Año": "GIGUP 2023 Y 2022", "Coment": "Envio ubicación por whatsapp", "Anio": 2022 }, "geometry": { "type": "Point", "coordinates": [ -82.855333333336404, 8.584166666664544, 0.0 ] } },
{ "type": "Feature", "properties": { "Name": "Karina Sandi Chavez", "tessellate": -1, "extrude": 0, "visibility": -1, "Id": 46, "Num": "7135-6213", "Carac_prod": "Cria de engorde, cerdos, pollos y terneros", "Lugar": "San Joaquín de Cutris, San Carlos, Alajuela", "Año": "GIGUP 2023 Y 2022", "Coment": "Envio ubicación por whatsapp", "Anio": 2022 }, "geometry": { "type": "Point", "coordinates": [ -84.451361111115276, 10.618694444443669, 0.0 ] } },
{ "type": "Feature", "properties": { "Name": "Karol Méndez Calderón", "tessellate": -1, "extrude": 0, "visibility": -1, "Id": 47, "Num": "8697-6788", "Carac_prod": "Cultivo de lengua suegra de uso medicinal y para limpieza, arboles frutales, animales de pastoreo", "Lugar": "Maleku, Alajuela", "Año": "GIGUP 2023 Y 2022", "Coment": "Envio ubicación por whatsapp", "Anio": 2022 }, "geometry": { "type": "Point", "coordinates": [ -84.787222222226617, 10.641111111110334, 0.0 ] } },
{ "type": "Feature", "properties": { "Name": "Laura Fernández Fernández", "tessellate": -1, "extrude": 0, "visibility": -1, "Id": 48, "Num": "6479-5265", "Carac_prod": "Ganaderia sostenible, cercas vivas", "Lugar": "Territorio Ujarrás", "Año": "GIGUP 2023 Y 2022", "Coment": "Envio ubicación por whatsapp", "Anio": 2022 }, "geometry": { "type": "Point", "coordinates": [ -83.322694444447833, 9.210944444442735, 0.0 ] } },
{ "type": "Feature", "properties": { "Name": "Liliana Esquivel Gónzalez", "tessellate": -1, "extrude": 0, "visibility": -1, "Id": 53, "Num": "8630-4690", "Carac_prod": "Producción de queso, vacas de doble proposito, cercas vivas, sistema silvopastoril, sila de maíz(Le gustaria ser una lecheria sostenible con tours)", "Lugar": "Los Chiles, Alajuela", "Año": "GIGUP 2023 Y 2022", "Coment": "Envio ubicación por whatsapp", "Anio": 2022 }, "geometry": { "type": "Point", "coordinates": [ -84.527028000004208, 10.720445999999283, 0.0 ] } },
{ "type": "Feature", "properties": { "Name": "Margarita Obando Mayorga", "tessellate": -1, "extrude": 0, "visibility": -1, "Id": 58, "Num": "8691-8853", "Carac_prod": "Cercas vivas, invernadero de tomate, pollo de engorde, y ponedoras, árboles frutales,guanabana,mango,medicinales.Trabaja en viveros con semillas para reforestar nacientes", "Lugar": "Buenos Aires, Territorio Indígena Ujarrás", "Año": "GIGUP 2023 Y 2022", "Coment": "Envio ubicación por whatsapp", "Anio": 2022 }, "geometry": { "type": "Point", "coordinates": [ -83.298888888892265, 9.230694444442749, 0.0 ] } },
{ "type": "Feature", "properties": { "Name": "María José Sanchez Castro", "tessellate": -1, "extrude": 0, "visibility": -1, "Id": 60, "Num": "8353-6811", "Carac_prod": "Finca integral, ganado de doble proposito, gallinas,cerdos, árboles frutales, tilapia,uso de biogestores, insecticidas orgánicos", "Lugar": "Siquirres, Limón", "Año": "GIGUP 2023 Y 2022", "Coment": "Ubicación por relato en google earth", "Anio": 2022 }, "geometry": { "type": "Point", "coordinates": [ -83.5872028711279, 10.126705939965737, 0.0 ] } },
{ "type": "Feature", "properties": { "Name": "Maricela Guitiérrez Navas", "tessellate": -1, "extrude": 0, "visibility": -1, "Id": 64, "Num": "8522-0244", "Carac_prod": "Ganado, terneras,producción de jabones artesanales, shampus, cremas todo de plantas medicinales y siembra de frojoles", "Lugar": "Cutris, San Carlos", "Año": "GIGUP 2023 Y 2022", "Coment": "Envio ubicación por whatsapp", "Anio": 2022 }, "geometry": { "type": "Point", "coordinates": [ -85.143500000004622, 10.989472222221671, 0.0 ] } }
]
}
