{
"type": "FeatureCollection",
"name": "Gigup_2023_wgs84",
"crs": { "type": "name", "properties": { "name": "urn:ogc:def:crs:OGC:1.3:CRS84" } },
"features": [
{ "type": "Feature", "properties": { "Name": "Nidia Mojica", "tessellate": -1, "extrude": 0, "visibility": -1, "Id": 70, "Num": "8913-9480", "Carac_prod": "-Especies animales: Ganado \n-Especies vegetales: plátano, yuca, cacao, maíz, frijoles \n-Especies animales: Ganado \n-Especies vegetales: plátano, yuca, cacao, maíz, frijoles J25\n-Especies animales: Ganado \n-Especies vegetales: plátano, yuca, cacao, m", "Lugar": "Malecu", "Año": "GIGUP 2023", "Coment": "Envió la ubicación por waap", "Anio": 2023 }, "geometry": { "type": "Point", "coordinates": [ -84.789777777782163, 10.649361111110345, 0.0 ] } },
{ "type": "Feature", "properties": { "Name": "Patricia Moya Moya", "tessellate": -1, "extrude": 0, "visibility": -1, "Id": 71, "Num": "8332-8308", "Carac_prod": "Siembra de banano y platano,Frijol ,Ñampi ,Yuca , Chayote \nCria de cerdo, Cria de Ovejas,Cria de pollo Siembra de árboles frutales", "Lugar": "Kabata Konana", "Año": "GIGUP 2023", "Coment": "Contestó. Ubicación aproximada por relato. Google Earth.", "Anio": 2023 }, "geometry": { "type": "Point", "coordinates": [ -83.510045093559526, 9.18393610113128, 0.0 ] } },
{ "type": "Feature", "properties": { "Name": "Raquel Fernández Fernández", "tessellate": -1, "extrude": 0, "visibility": -1, "Id": 74, "Num": "84569394", "Carac_prod": "Siembra de, plátano, banano, yuca, frijoles, maíz, ñampí, pataste (cacao), pejibaye\nCría de pollos y cerdos. \nReforestación de árboles maderables y medicinales. \nNombres de los árboles: Laurel, cedro, \nPilón, almendro, árboles frutales, naranja", "Lugar": "Territorio Cabecar Sibuju", "Año": "GIGUP 2023", "Coment": "Contestó. Ubicación aproximada por relato. Google Earth.", "Anio": 2023 }, "geometry": { "type": "Point", "coordinates": [ -82.974569072752601, 9.604831304212034, 0.0 ] } },
{ "type": "Feature", "properties": { "Name": "Rosi Garro Villanueva", "tessellate": -1, "extrude": 0, "visibility": -1, "Id": 77, "Num": "6419-3326", "Carac_prod": "Cria de gallinas\nCria de cerdos\nSiembra de platanos, yuca, maíz\n", "Lugar": "Palmar Norte", "Año": "GIGUP 2023", "Coment": "Envió la ubicación por whatsapp", "Anio": 2023 }, "geometry": { "type": "Point", "coordinates": [ -83.473138888892379, 8.92408333333143, 0.0 ] } },
{ "type": "Feature", "properties": { "Name": "Priscilla Reyes", "tessellate": -1, "extrude": 0, "visibility": -1, "Id": 73, "Num": "8770-1443", "Carac_prod": "Siembra huertas -Siembra de banano -Apicultura -Frijoles -Cría de pollo de granja -Agroforestal\nSiembra de Guayaba -Pino -Ciprés -Eucalipto Roble/Sotacaballo\nLombricultura\nApicultura para mantener la finca con la polinización", "Lugar": "Alto Chirripó", "Año": "GIGUP 2023", "Coment": "Envió ubicación por Wapp", "Anio": 2023 }, "geometry": { "type": "Point", "coordinates": [ -83.440770700565807, 9.808156219341654, 0.0 ] } },
{ "type": "Feature", "properties": { "Name": "Rebeca Marchena Quirós", "tessellate": -1, "extrude": 0, "visibility": -1, "Id": 75, "Num": "6303-3980", "Carac_prod": "Recolección de semillas para hacer bisutería, reciclaje, reparación y restauración de artículos dañados. \nCreación de artesanías, elaboración de papel marche, maceteras reciclados. Segundo uso a las latas. Elaboración de trajes culturales con f", "Lugar": "Malecu", "Año": "GIGUP 2023", "Coment": null, "Anio": 2023 }, "geometry": { "type": "Point", "coordinates": [ -84.787934556567691, 10.657271519337632, 0.0 ] } },
{ "type": "Feature", "properties": { "Name": "Rosa Álvarez", "tessellate": -1, "extrude": 0, "visibility": -1, "Id": 76, "Num": "6399-5684", "Carac_prod": "Árboles: Corteza Morada, Papaturro, Guaitil \nPilón. Realizará reforestación con unos árboles que le regalaron", "Lugar": "Malecu", "Año": "GIGUP 2023", "Coment": null, "Anio": 2023 }, "geometry": { "type": "Point", "coordinates": [ -84.78513594960404, 10.637105812976372, 0.0 ] } },
{ "type": "Feature", "properties": { "Name": "Sonia Cortez Jimenez", "tessellate": -1, "extrude": 0, "visibility": -1, "Id": 78, "Num": "8492-2855", "Carac_prod": "Asiste a ferias y vende los siguentes productos de Plátano, abacá, mamones, maíz, frijoles, papaya, guanabanas, pipas.\nUso de abono con sobrantes del plátano", "Lugar": "Palmar Norte", "Año": "GIGUP 2023", "Coment": "Contestó. Ubicación aproximada por relato. Google Earth", "Anio": 2023 }, "geometry": { "type": "Point", "coordinates": [ -83.485599878785507, 8.9214553255441, 0.0 ] } },
{ "type": "Feature", "properties": { "Name": "Xiomara Cabra Cabra", "tessellate": -1, "extrude": 0, "visibility": -1, "Id": 83, "Num": "8563-6802", "Carac_prod": "Siembra: Granos Básico, tubérculos, Banano, Cacao, plantas medicinales. \nÁrboles maderables y frutales \nCría de vacas, caballos, cerdos, gallinas, cabras, ovejas y tilapias. \nVenta del excedente de las cosechas.", "Lugar": "ACOMUITAS", "Año": "GIGUP 2023", "Coment": "Contestó. Ubicación aproximada por relato. Google Earth.", "Anio": 2023 }, "geometry": { "type": "Point", "coordinates": [ -82.930523782768091, 9.602533135517504, 0.0 ] } },
{ "type": "Feature", "properties": { "Name": "Yacsiri Blanco Mojica", "tessellate": -1, "extrude": 0, "visibility": -1, "Id": 84, "Num": "6145-6019", "Carac_prod": "Ganadería (Doble propósito leche y carne)\nGallinas de patio \nPollos blancos (de engorde) \nÁrboles: Zota Caballo \nFrutales: Aguacates, Caimito, naranjas. \nSiembra de árboles alrededor de una laguna", "Lugar": "Malecu", "Año": "GIGUP 2023", "Coment": null, "Anio": 2023 }, "geometry": { "type": "Point", "coordinates": [ -84.784898400647975, 10.65453975058654, 0.0 ] } },
{ "type": "Feature", "properties": { "Name": "Zeneida Sequeira G", "tessellate": -1, "extrude": 0, "visibility": -1, "Id": 90, "Num": "8370-8848", "Carac_prod": "Siembra de plátano, tipian, y yuca\nCría de pollos, cerdos y vacas\nÁrboles frutales: aguacates, papaya, limones\nUtiliza abono a base de la ceniza del café", "Lugar": "Palmar Norte", "Año": "GIGUP 2023", "Coment": "Contestó. Ubicación aproximada por relato. Google Earth", "Anio": 2023 }, "geometry": { "type": "Point", "coordinates": [ -83.491583333336834, 8.869777777775841, 0.0 ] } },
{ "type": "Feature", "properties": { "Name": "Ana Julia Gómez Gómez", "tessellate": -1, "extrude": 0, "visibility": -1, "Id": 1, "Num": null, "Carac_prod": "Siembra de platano, yuca. Ganado, pollos y cerdos", "Lugar": "Osa, Puntarenas", "Año": "GIGUP 2023", "Coment": "Contestó. Ubicación aproximada por relato. Google Earth", "Anio": 2023 }, "geometry": { "type": "Point", "coordinates": [ -83.31877777778115, 8.819583333331362, 0.0 ] } },
{ "type": "Feature", "properties": { "Name": "Carmen Villanueva", "tessellate": -1, "extrude": 0, "visibility": -1, "Id": 7, "Num": "8693-6339", "Carac_prod": "• Nances \n• Manzana de agua\n• Limón Criollo\n• Aguacate\n• Limón dulce\n• Guineo negro\n• Mango", "Lugar": "Palmar Norte", "Año": "GIGUP 2023", "Coment": "Envió la ubicación por whatsapp", "Anio": 2023 }, "geometry": { "type": "Point", "coordinates": [ -83.480472222225714, 8.918222222220319, 0.0 ] } },
{ "type": "Feature", "properties": { "Name": "Carmen Quintero Quintero", "tessellate": -1, "extrude": 0, "visibility": -1, "Id": 6, "Num": "8651-6378", "Carac_prod": "Producción orgánica, cercas vivas, vaquitas, Maíz Orgánico, Árboles frutales, pollos, cañal orgánico, venta de mis productos \nUso abono orgánico, \nUso desechos de caña y follaje, reutilizar\n", "Lugar": "Palmar Norte", "Año": "GIGUP 2023", "Coment": "Contestó. Ubicación aproximada por relato. Google Earth", "Anio": 2023 }, "geometry": { "type": "Point", "coordinates": [ -83.484116846356628, 8.925245568189554, 0.0 ] } },
{ "type": "Feature", "properties": { "Name": "Cinthya Hernandez Chavarría", "tessellate": -1, "extrude": 0, "visibility": -1, "Id": 9, "Num": "6184-4022", "Carac_prod": "Abono organico Cerca vivas Producción de granos básicos Cría de gallina Cría de chompipe Cría de patos Siembra de árboles frutales Cría de cerdo  Tubérculos de Siembra Siembre de: Platano, culantro coyote, guanabana, limón, caña agria, insulina", "Lugar": "Palmar Norte", "Año": "GIGUP 2023", "Coment": "Envía la ubicación por whatsapp", "Anio": 2023 }, "geometry": { "type": "Point", "coordinates": [ -83.473388888892373, 8.918583333331426, 0.0 ] } },
{ "type": "Feature", "properties": { "Name": "Cora Reyes Hidalgo", "tessellate": -1, "extrude": 0, "visibility": -1, "Id": 10, "Num": "8732-8843", "Carac_prod": "Siembra de, banano, plátano, maíz, frijoles, arroz. \nChapear las plantaciones, limpiar las malas hierbas, no se usa agroquímicos son muy caros, solo se hace limpieza de los cultivos. \nCría de pollos caseros \nReforestación de árboles frutales.\n", "Lugar": "Gavilan Canta", "Año": "GIGUP 2023", "Coment": null, "Anio": 2023 }, "geometry": { "type": "Point", "coordinates": [ -82.979992427355128, 9.590359925617195, 0.0 ] } },
{ "type": "Feature", "properties": { "Name": "Daniela Kaser Carrera", "tessellate": -1, "extrude": 0, "visibility": -1, "Id": 12, "Num": "8821-4525 / 8669-7928", "Carac_prod": "Producción de artesanías \nConocimiento de plantas medicinales \nPinturas Naturales \nCocina Típica \nTours en el bosque: cuido, plantas medicinales, plantas comestibles, pinturas naturales, cuido de los animales, agricultura biológica.\n", "Lugar": "Abrojo", "Año": "GIGUP 2023", "Coment": "Envió la ubicación por whatsapp", "Anio": 2023 }, "geometry": { "type": "Point", "coordinates": [ -83.53411111111464, 8.617555555553452, 0.0 ] } },
{ "type": "Feature", "properties": { "Name": "Dannia Yerony Salazar", "tessellate": -1, "extrude": 0, "visibility": -1, "Id": 13, "Num": "8627-8429", "Carac_prod": "Siembra de frijol, maíz, café, banano, platano", "Lugar": "Alto Chirripó", "Año": "GIGUP 2023", "Coment": "Envio ubicación por whatsapp", "Anio": 2023 }, "geometry": { "type": "Point", "coordinates": [ -83.405484452428453, 9.791394860518132, 0.0 ] } },
{ "type": "Feature", "properties": { "Name": "Elides Rivera Navas", "tessellate": -1, "extrude": 0, "visibility": -1, "Id": 16, "Num": "8419-0156", "Carac_prod": "Animales: aves como la Cocaleca,carpintero,yiguirro, pecho amarillo,gavilanes, tucan,pericos, y aves nocturnas.Árboles: zapatero, amarillon, maria, arinillo. Elaboraciòn de abonos orgánicos,siembra y cuido de semillas nativas, jardín para polinizador", "Lugar": "Térraba", "Año": "GIGUP 2023", "Coment": "Envio ubicación por whatsapp", "Anio": 2023 }, "geometry": { "type": "Point", "coordinates": [ -83.287555555558939, 9.066361111109302, 0.0 ] } },
{ "type": "Feature", "properties": { "Name": "Elizabeth Obando Mora", "tessellate": -1, "extrude": 0, "visibility": -1, "Id": 18, "Num": "8315-7224", "Carac_prod": "Cuidar animales, sembrar, chapiar finca. \nTodos ellos producen para vender o gastar lo propio de la casa \nCrianza de Gallinas, chanchos. \nSiembra de banano, ayote, chayote \nárboles frutales de naranja, guayaba, mandarina", "Lugar": "Alto Chirripó", "Año": "GIGUP 2023", "Coment": "Envió ubicación por Wapp", "Anio": 2023 }, "geometry": { "type": "Point", "coordinates": [ -83.430595847240042, 9.789552010395452, 0.0 ] } },
{ "type": "Feature", "properties": { "Name": "Elsy Chavéz Núnez", "tessellate": -1, "extrude": 0, "visibility": -1, "Id": 19, "Num": "8658-0682", "Carac_prod": "Cuenta con una finca ecotirística con un sendero principal de 2 ha de bosque que conducen a los visitantes a observar bellos paisajes que cuentan con árboles, plantas, nacientes, pasos en puentes colgantes, animales como pavas, monos, pájaros, ranas,", "Lugar": "Guácimo", "Año": "GIGUP 2023", "Coment": null, "Anio": 2023 }, "geometry": { "type": "Point", "coordinates": [ -83.666527777781425, 10.157972222221138, 0.0 ] } },
{ "type": "Feature", "properties": { "Name": "Esther Herrera Sánchez", "tessellate": -1, "extrude": 0, "visibility": -1, "Id": 21, "Num": "8651-4832", "Carac_prod": "Siembra de plátano\nSiembra de árboles frutales: papaya, limón, pipas\nSiembre de chile panameño", "Lugar": "Palmar Norte", "Año": "GIGUP 2023", "Coment": null, "Anio": 2023 }, "geometry": { "type": "Point", "coordinates": [ -83.467150102679042, 8.92036988061793, 0.0 ] } },
{ "type": "Feature", "properties": { "Name": "Evelyn Franco Rojas", "tessellate": -1, "extrude": 0, "visibility": -1, "Id": 23, "Num": null, "Carac_prod": "Ganado, cerdos y gallinas ponedoras\nSiembra de árboles frutales: guachipellín, madero negro, indio pelado\nCerca de la finca hecha de árboles", "Lugar": null, "Año": "GIGUP 2023", "Coment": "Envía la ubicación por whatsapp", "Anio": 2023 }, "geometry": { "type": "Point", "coordinates": [ -83.47955555555906, 8.919694444442538, 0.0 ] } },
{ "type": "Feature", "properties": { "Name": "Flor María Solano Salas", "tessellate": -1, "extrude": 0, "visibility": -1, "Id": 24, "Num": "8523-6904", "Carac_prod": "Producción de artesanías \nConocimiento de plantas medicinales \nPinturas Naturales \nCocina Típica \nTours en el bosque: cuido, plantas medicinales, plantas comestibles, pinturas naturales, cuido de los animales, agricultura biológica.\n", "Lugar": "Palmar Norte", "Año": "GIGUP 2023", "Coment": "Envió la ubicación por whatsapp", "Anio": 2023 }, "geometry": { "type": "Point", "coordinates": [ -83.484944444447962, 8.923583333331427, 0.0 ] } },
{ "type": "Feature", "properties": { "Name": "Evelyn Castro Fonseca", "tessellate": -1, "extrude": 0, "visibility": -1, "Id": 22, "Num": "6422-7972", "Carac_prod": "Cultivos: \nLombricultura (Producción de abono) \nYuca Tiquisque, Plátano, Maíz, Frijoles, Cría de cerdos, Ganadería Lombricultura (Producción de abono) Pollos de engorde Codornices Cerdos y vacas Sota Caballo \nLaurel Corteza amarillo Cerca de los po", "Lugar": "Malecu", "Año": "GIGUP 2023", "Coment": null, "Anio": 2023 }, "geometry": { "type": "Point", "coordinates": [ -84.800225328831502, 10.643906788874233, 0.0 ] } },
{ "type": "Feature", "properties": { "Name": "Flory Lorena Reyes 1", "tessellate": -1, "extrude": 0, "visibility": -1, "Id": 25, "Num": null, "Carac_prod": "Siembra de, plátano, banano. En época de corta ella participa con los hijos en la corta. \nCría de pollos. \nReforestación de árboles maderables y medicinales. \nNombres de los árboles: pilón, almendro, cortés. \nLos pilones ya están grandes. Y los", "Lugar": "Bratsi", "Año": "GIGUP 2023", "Coment": "Contestó. Ubicación aproximada por relato. Google Earth. Tiene dos fincas", "Anio": 2023 }, "geometry": { "type": "Point", "coordinates": [ -82.975366884868109, 9.589867515419643, 0.0 ] } },
{ "type": "Feature", "properties": { "Name": "Grace Nuñez Rojas", "tessellate": -1, "extrude": 0, "visibility": -1, "Id": 28, "Num": "8417-4679", "Carac_prod": "Producción de artesanías \nConocimiento de plantas medicinales \nPinturas Naturales \nCocina Típica \nTours en el bosque: cuido, plantas medicinales, plantas comestibles, pinturas naturales, cuido de los animales, agricultura biológica.\n", "Lugar": "Palmar Norte", "Año": "GIGUP 2023", "Coment": "Envió la ubicación por whatsapp", "Anio": 2023 }, "geometry": { "type": "Point", "coordinates": [ -83.46866666667016, 8.864999999998062, 0.0 ] } },
{ "type": "Feature", "properties": { "Name": "Flory Lorena Reyes 2", "tessellate": -1, "extrude": 0, "visibility": -1, "Id": 26, "Num": null, "Carac_prod": "Siembra de, plátano, banano. En época de corta ella participa con los hijos en la corta. \nCría de pollos. \nReforestación de árboles maderables y medicinales. \nNombres de los árboles: pilón, almendro, cortés. \nLos pilones ya están grandes. Y los", "Lugar": "Bratsi", "Año": "GIGUP 2023", "Coment": "Contestó. Ubicación aproximada por relato. Google Earth. Tiene dos fincas", "Anio": 2023 }, "geometry": { "type": "Point", "coordinates": [ -82.980709445731449, 9.603454038339633, 0.0 ] } },
{ "type": "Feature", "properties": { "Name": "Grace Vargas Mendez", "tessellate": -1, "extrude": 0, "visibility": -1, "Id": 29, "Num": "8684-1900", "Carac_prod": "Producción de platano Producción de abonos orgánicos Siembra de frutales \nSiembra de tubérculos Siembra de granos bosicus Cría de gallinos Cría de Cerdos \nSiembra de hortalizas", "Lugar": "Palmar Norte", "Año": "GIGUP 2023", "Coment": "Envía la ubicación por whatsapp", "Anio": 2023 }, "geometry": { "type": "Point", "coordinates": [ -83.502239910836806, 8.921144531656363, 0.0 ] } },
{ "type": "Feature", "properties": { "Name": "Hazel Blanco Mojica 2", "tessellate": -1, "extrude": 0, "visibility": -1, "Id": 31, "Num": "6075-2559", "Carac_prod": "Ganado de ordeño renovable. Para la familia. Se hace queso para cuando están en producción. Agricultura, siembra plátano, yuca, frijoles, maíz, de autoconsumo y si queda se usa para alimento de los animales. Las heces de las vacas las utiliza como a", "Lugar": "Malecu", "Año": "GIGUP 2023", "Coment": null, "Anio": 2023 }, "geometry": { "type": "Point", "coordinates": [ -84.787805555559942, 10.651749999999229, 0.0 ] } },
{ "type": "Feature", "properties": { "Name": "Hazel Blanco Mojica 1", "tessellate": -1, "extrude": 0, "visibility": -1, "Id": 30, "Num": "6075-2559", "Carac_prod": "Ganado de ordeño renovable. Para la familia. Se hace queso para cuando están en producción. Agricultura, siembra plátano, yuca, frijoles, maíz, de autoconsumo y si queda se usa para alimento de los animales. Las heces de las vacas las utiliza como a", "Lugar": "Malecu", "Año": "GIGUP 2023", "Coment": null, "Anio": 2023 }, "geometry": { "type": "Point", "coordinates": [ -84.782388888893266, 10.65372222222145, 0.0 ] } },
{ "type": "Feature", "properties": { "Name": "Hazel Blanco Mojica 3", "tessellate": -1, "extrude": 0, "visibility": -1, "Id": 32, "Num": "6075-2559", "Carac_prod": "Ganado de ordeño renovable. Para la familia. Se hace queso para cuando están en producción. Agricultura, siembra plátano, yuca, frijoles, maíz, de autoconsumo y si queda se usa para alimento de los animales. Las heces de las vacas las utiliza como a", "Lugar": "Malecu", "Año": "GIGUP 2023", "Coment": null, "Anio": 2023 }, "geometry": { "type": "Point", "coordinates": [ -84.793361111115487, 10.6516666666659, 0.0 ] } },
{ "type": "Feature", "properties": { "Name": "Ileana Aguilar Jiménez", "tessellate": -1, "extrude": 0, "visibility": -1, "Id": 34, "Num": "8506-1475", "Carac_prod": "Jardín botánico \nSiembra de banano \nCría de chanchos y de pollos \nNo usa químicos, abono hojas o palos podridos, solo abono orgánico.", "Lugar": "Alto Chirripó", "Año": "GIGUP 2023", "Coment": "Envió la ubicación por whatsapp", "Anio": 2023 }, "geometry": { "type": "Point", "coordinates": [ -83.480472222225714, 9.789361111109789, 0.0 ] } },
{ "type": "Feature", "properties": { "Name": "Heidy Morales Martínez", "tessellate": -1, "extrude": 0, "visibility": -1, "Id": 33, "Num": "8630-8147", "Carac_prod": "Turismo: Las tareas las realizan todos los integrantes de la familia \n-Agricultura: Las tareas las realizan todos los integrantes de la familia (Chile, yuca, tiquizque, chamol, plátano) \n-Ganado: Las tareas las hacemos mi esposo y mi persona.\n-Agricultu", "Lugar": "Malecu", "Año": "GIGUP 2023", "Coment": "Envió la ubicación por whatsapp", "Anio": 2023 }, "geometry": { "type": "Point", "coordinates": [ -84.792138888893277, 10.647833333332553, 0.0 ] } },
{ "type": "Feature", "properties": { "Name": "Imelda Férnandez Reyes", "tessellate": -1, "extrude": 0, "visibility": -1, "Id": 35, "Num": "86083929", "Carac_prod": "Siembra de arroz, frijoles, maíz, plátano, banano, yuca, trigo, ñampí. \nCría de pollo, cerdos. \nReforestación de árboles maderables y medicinales. \nNombres de los árboles: Cortés, cedro, manú.", "Lugar": "Territoro Cabecar San Miguel", "Año": "GIGUP 2023", "Coment": "Contestó. Ubicación aproximada por relato. Google Earth.", "Anio": 2023 }, "geometry": { "type": "Point", "coordinates": [ -82.973594610763001, 9.622314904795541, 0.0 ] } },
{ "type": "Feature", "properties": { "Name": "Ingrid Lacayo Elizondo 2", "tessellate": -1, "extrude": 0, "visibility": -1, "Id": 37, "Num": "8473-8086", "Carac_prod": "Artesanías manteniendo la cultura. Elaboración utensilios de cocina utilizando jícaras, bejucos, bambú, esto para cuidar el ambiente. Hace botellas para tomar agua en bambú. En madera trabaja lo que es desecho no corta madera. Hace comidas tradicion", "Lugar": "Malecu", "Año": "GIGUP 2023", "Coment": null, "Anio": 2023 }, "geometry": { "type": "Point", "coordinates": [ -84.800181565750549, 10.651219121269229, 0.0 ] } },
{ "type": "Feature", "properties": { "Name": "Irene Castro Varela", "tessellate": -1, "extrude": 0, "visibility": -1, "Id": 38, "Num": "6420-2852", "Carac_prod": "Elaboración de alimentos con productos orgánicos. Vende alimentos almuerzos, panes, postres y utiliza los productos que cosecha amigable con el ambiente.Siembra de productos sin uso de agroquímicos y totalmente caseros. Los lácteos y la leche que usa", "Lugar": null, "Año": "GIGUP 2023", "Coment": "Envió la ubicación por whatsapp", "Anio": 2023 }, "geometry": { "type": "Point", "coordinates": [ -84.792583333337717, 10.647416666665899, 0.0 ] } },
{ "type": "Feature", "properties": { "Name": "Ingrid Lacayo Elizondo 1", "tessellate": -1, "extrude": 0, "visibility": -1, "Id": 36, "Num": "8473-8086", "Carac_prod": "Artesanías manteniendo la cultura. Elaboración utensilios de cocina utilizando jícaras, bejucos, bambú, esto para cuidar el ambiente. Hace botellas para tomar agua en bambú. En madera trabaja lo que es desecho no corta madera. Hace comidas tradicion", "Lugar": "Malecu", "Año": "GIGUP 2023", "Coment": null, "Anio": 2023 }, "geometry": { "type": "Point", "coordinates": [ -84.789849725182194, 10.652486066067382, 0.0 ] } },
{ "type": "Feature", "properties": { "Name": "Irene Mejía Carmona", "tessellate": -1, "extrude": 0, "visibility": -1, "Id": 38, "Num": "6420-2852", "Carac_prod": "Elaboración de alimentos con productos orgánicos. Vende alimentos almuerzos, panes, postres y utiliza los productos que cosecha amigable con el ambiente.Siembra de productos sin uso de agroquímicos y totalmente caseros. Los lácteos y la leche que usa", "Lugar": null, "Año": "GIGUP 2023", "Coment": "Envió la ubicación por whatsapp", "Anio": 2023 }, "geometry": { "type": "Point", "coordinates": [ -84.786868987789319, 10.647617545100911, 0.0 ] } },
{ "type": "Feature", "properties": { "Name": "Jenny Lacayo Elisondo 1", "tessellate": -1, "extrude": 0, "visibility": -1, "Id": 41, "Num": "8512-5987", "Carac_prod": "Proyecto de turismo (Centro de enseñanza cultural y turismo TOKU-MALEKU): Enseñanza culturales.Plátano, yuca, maíz, tiquizque, malanga. Crianza de gallina y cerdos Reforestación de la finca: \n-ÁRBOLES frutales: Guabana, Caimito, Ojoche -Árboles ma", "Lugar": "Malecu", "Año": "GIGUP 2023", "Coment": "Envió la ubicación por whatsapp", "Anio": 2023 }, "geometry": { "type": "Point", "coordinates": [ -84.79153337297079, 10.647552306859783, 0.0 ] } },
{ "type": "Feature", "properties": { "Name": "Jenny Lacayo Elisondo 2", "tessellate": -1, "extrude": 0, "visibility": -1, "Id": 42, "Num": "8512-5987", "Carac_prod": "Proyecto de turismo (Centro de enseñanza cultural y turismo TOKU-MALEKU): Enseñanza culturales.Plátano, yuca, maíz, tiquizque, malanga. Crianza de gallina y cerdos Reforestación de la finca: \n-ÁRBOLES frutales: Guabana, Caimito, Ojoche -Árboles ma", "Lugar": "Malecu", "Año": "GIGUP 2023", "Coment": "Envió la ubicación por whatsapp", "Anio": 2023 }, "geometry": { "type": "Point", "coordinates": [ -84.788982728045681, 10.651622890350058, 0.0 ] } },
{ "type": "Feature", "properties": { "Name": "Judith Almengor Sánchez", "tessellate": -1, "extrude": 0, "visibility": -1, "Id": 44, "Num": "8692-8232", "Carac_prod": "Procesamos productos deshidratados (Platano, yuca, banano cuadrado, especies como cúrcuma y jengibre) y sus derivados, esto en su mayoría con productos de la zona o cultivados en mi finca. \n\n-Realizamos harinas libres de gluten, condimentos y aceites d", "Lugar": "ACOMUITAS", "Año": "GIGUP 2023", "Coment": "Contestó. Ubicación aproximada por relato. Google Earth. Jueves 04 envía la ubicación de la otra finca grande", "Anio": 2023 }, "geometry": { "type": "Point", "coordinates": [ -82.956707737450131, 9.587538883252584, 0.0 ] } },
{ "type": "Feature", "properties": { "Name": "Laura María Granados Rodriguez", "tessellate": -1, "extrude": 0, "visibility": -1, "Id": 49, "Num": "8615-6841", "Carac_prod": "Cultivo de hongos ostra orgánico", "Lugar": "Guaycará, Golfito, Puntarenas", "Año": "GIGUP 2023", "Coment": "Envio ubicación por whatsapp", "Anio": 2023 }, "geometry": { "type": "Point", "coordinates": [ -83.06630555555877, 8.68019444444238, 0.0 ] } },
{ "type": "Feature", "properties": { "Name": "Laura Maritza Valverde Fallas", "tessellate": -1, "extrude": 0, "visibility": -1, "Id": 50, "Num": "8889-7859", "Carac_prod": "Cuido ganado, siembra de carambola, guanabana, limón\nCercas de poste vivo con madero negro\n", "Lugar": "Guácimo", "Año": "GIGUP 2023", "Coment": "Envió la ubicación por whatsapp", "Anio": 2023 }, "geometry": { "type": "Point", "coordinates": [ -83.667055555559187, 10.159888888887801, 0.0 ] } },
{ "type": "Feature", "properties": { "Name": "Ligia Zamora Clavo", "tessellate": -1, "extrude": 0, "visibility": -1, "Id": 52, "Num": "8574-1087", "Carac_prod": "Producción de artesanías \nConocimiento de plantas medicinales \nPinturas Naturales \nCocina Típica \nTours en el bosque: cuido, plantas medicinales, plantas comestibles, pinturas naturales, cuido de los animales, agricultura biológica.\n", "Lugar": "Palmar Norte", "Año": "GIGUP 2023", "Coment": "Envió la ubicación por whatsapp", "Anio": 2023 }, "geometry": { "type": "Point", "coordinates": [ -83.367083333336751, 8.880777777775846, 0.0 ] } },
{ "type": "Feature", "properties": { "Name": "Leticia Morales Martínez", "tessellate": -1, "extrude": 0, "visibility": -1, "Id": 51, "Num": "8724-0939", "Carac_prod": "Ganadería de doble propósito, vende un ternero y compra más. También para consumo de la casa y se gana para tener dinero. Son ganados encastados (son de raza).Tiene un área de casi 6 ha en montaña y lo de potrero. Inicio cercas vivas está iniciand", "Lugar": "Malecu", "Año": "GIGUP 2023", "Coment": null, "Anio": 2023 }, "geometry": { "type": "Point", "coordinates": [ -84.788843626503663, 10.657712141040951, 0.0 ] } },
{ "type": "Feature", "properties": { "Name": "Liseth Gamazo Hernández", "tessellate": -1, "extrude": 0, "visibility": -1, "Id": 54, "Num": "85018896", "Carac_prod": "Emprendimiento de manualidades con materiales reciclados para hacer faroles, piñatas y flores", "Lugar": "Sierpe Osa", "Año": "GIGUP 2023", "Coment": "Envió la ubicación por whatsapp", "Anio": 2023 }, "geometry": { "type": "Point", "coordinates": [ -83.470972222225711, 8.87194444444251, 0.0 ] } },
{ "type": "Feature", "properties": { "Name": "Magally Rámirez Pérez", "tessellate": -1, "extrude": 0, "visibility": -1, "Id": 55, "Num": "8906-49923", "Carac_prod": "Gallinas criollas, siembra de platano, cuadraditos, bananeros, papayas, limón,naranja,cas, manzana de agua, medicinales todo organico", "Lugar": "Matambú", "Año": "GIGUP 2023", "Coment": "Envio ubicación por whatsapp", "Anio": 2023 }, "geometry": { "type": "Point", "coordinates": [ -85.422472222227, 10.092194444443292, 0.0 ] } },
{ "type": "Feature", "properties": { "Name": "Marcela Quirós Elizondo 1", "tessellate": -1, "extrude": 0, "visibility": -1, "Id": 56, "Num": "8510-0927", "Carac_prod": "Siembra de Yuca, Plátano, Cúrcuma \nLista de los principales árboles en la parcela. \n-Balsa, Laurel, Cocobolo, Cortez Amarilla, Nancite, Aguacate, Coco, Mango, Fruta de Pan.\nNo se utilizan plaguicida y bono.", "Lugar": "Malecu", "Año": "GIGUP 2023", "Coment": null, "Anio": 2023 }, "geometry": { "type": "Point", "coordinates": [ -84.78139317332878, 10.641003015036315, 0.0 ] } },
{ "type": "Feature", "properties": { "Name": "Maria Lorena Valverde", "tessellate": -1, "extrude": 0, "visibility": -1, "Id": 61, "Num": "8779-4976", "Carac_prod": "Siembra plátano\nSiembra de elote \nSiembra frutales \nCrías de gallinas \nSiembra yuca \nUso desecho del plátano como abono \n", "Lugar": "Palmar Norte", "Año": "GIGUP 2023", "Coment": "Envió la ubicación por whatsapp", "Anio": 2023 }, "geometry": { "type": "Point", "coordinates": [ -83.506638888892411, 8.913333333331419, 0.0 ] } },
{ "type": "Feature", "properties": { "Name": "Marcela Quirós Elizondo 2", "tessellate": -1, "extrude": 0, "visibility": -1, "Id": 57, "Num": "8510-0927", "Carac_prod": "Siembra de Yuca, Plátano, Cúrcuma \nLista de los principales árboles en la parcela. \n-Balsa, Laurel, Cocobolo, Cortez Amarilla, Nancite, Aguacate, Coco, Mango, Fruta de Pan.\nNo se utilizan plaguicida y bono.", "Lugar": "Malecu", "Año": "GIGUP 2023", "Coment": null, "Anio": 2023 }, "geometry": { "type": "Point", "coordinates": [ -84.787586155750503, 10.657159907188495, 0.0 ] } },
{ "type": "Feature", "properties": { "Name": "María García Morales", "tessellate": -1, "extrude": 0, "visibility": -1, "Id": 59, "Num": "8643-9070", "Carac_prod": "Siembran banano, cacao, yuca, maíz, frutales, pejiballes, aguacate. Para autoconsumo y para venta. \nCría de pollos, cerdos, vacas, ovejas. \nSiembra de árboles como sotacaballo, para sombra o para proteger fuentes de agua. \nTiene una pulpería y se cua", "Lugar": "ACOMUITAS", "Año": "GIGUP 2023", "Coment": "Contestó. Ubicación aproximada por relato. Google Earth.", "Anio": 2023 }, "geometry": { "type": "Point", "coordinates": [ -82.989034248749789, 9.50589487917814, 0.0 ] } },
{ "type": "Feature", "properties": { "Name": "María Martina Mata Castillo", "tessellate": -1, "extrude": 0, "visibility": -1, "Id": 62, "Num": "8802-7483, 8514-4830 y 8334-0427", "Carac_prod": "Manualidades con botellas recicladas. \nConfección de chanchitos decorativos de cáscara de huevo y botellas recicladas. \nGanadería para consumo propio (5 vacas) y siembra en la finca. \n\n", "Lugar": "Potreros de Sierpe, Osa", "Año": "GIGUP 2023", "Coment": "Envió la ubicación por whatsapp", "Anio": 2023 }, "geometry": { "type": "Point", "coordinates": [ -83.519416666670182, 8.793777777775786, 0.0 ] } },
{ "type": "Feature", "properties": { "Name": "Maria Moya Jimenez", "tessellate": -1, "extrude": 0, "visibility": -1, "Id": 63, "Num": "8598-0863", "Carac_prod": "Siembra Maíz, Frijol, Bananos, yuca, y plátanos. Solo orgánicos.\n\n-Se realizan intercambios \n\n-Culantro-repollo \n\n-Pollos de engorde", "Lugar": "Alto Chirripó", "Año": "GIGUP 2023", "Coment": "Contesto, ubicación por relato, google earth", "Anio": 2023 }, "geometry": { "type": "Point", "coordinates": [ -83.511250000003528, 9.754749999998655, 0.0 ] } },
{ "type": "Feature", "properties": { "Name": "Marilyn Cabrera Delgado", "tessellate": -1, "extrude": 0, "visibility": -1, "Id": 66, "Num": "8627-8429", "Carac_prod": "Tours cuturales de petroglifos, montañas y santuarios sagrados", "Lugar": "Térraba", "Año": "GIGUP 2023", "Coment": "Envio ubicación por whatsapp", "Anio": 2023 }, "geometry": { "type": "Point", "coordinates": [ -83.3508888888923, 9.055611111109297, 0.0 ] } },
{ "type": "Feature", "properties": { "Name": "Marielos Acuña Mora", "tessellate": -1, "extrude": 0, "visibility": -1, "Id": 65, "Num": "8381-0176", "Carac_prod": "Siembra de plátano\nSiembra de yuca,\nSiembra de maíz \nCría de Cerdos, \nCría de Gallinas\nSiembra de frutas: pipas, limones etc\n", "Lugar": "Palmar Norte", "Año": "GIGUP 2023", "Coment": "Envió la ubicación por whatsapp", "Anio": 2023 }, "geometry": { "type": "Point", "coordinates": [ -83.484720987842749, 8.931148365254705, 0.0 ] } },
{ "type": "Feature", "properties": { "Name": "Marisel Chavez Gómez", "tessellate": -1, "extrude": 0, "visibility": -1, "Id": 67, "Num": "87442463", "Carac_prod": "Banano, platano, yuca, chamol, coco, pejibaya, guanabana, aguacate, mandarina\nCría de gallinas, pollos y cerdos", "Lugar": "San juan de Sierpe", "Año": "GIGUP 2023", "Coment": "Envió la ubicación por whatsapp", "Anio": 2023 }, "geometry": { "type": "Point", "coordinates": [ -83.509222222225731, 8.775888888886888, 0.0 ] } },
{ "type": "Feature", "properties": { "Name": "Marta Villanueva", "tessellate": -1, "extrude": 0, "visibility": -1, "Id": 68, "Num": "8763-9891 ", "Carac_prod": "Siembro Plátanos, Maíz, Aguacate\nMandarina acida Limón criolla \nTres palos achiote Papaya Frijolillo de palo Pipas Cerdos  Gallinas \n", "Lugar": "Palmar Norte", "Año": "GIGUP 2023", "Coment": "Envió la ubicación por whatsapp", "Anio": 2023 }, "geometry": { "type": "Point", "coordinates": [ -83.485888888892404, 8.922583333331422, 0.0 ] } },
{ "type": "Feature", "properties": { "Name": "Meilin Mora Lacayo", "tessellate": -1, "extrude": 0, "visibility": -1, "Id": 69, "Num": "6075-2559", "Carac_prod": "Artesanías manteniendo la cultura. \nElaboración utensilios de cocina utilizando jícaras, bejucos, bambú, esto para cuidar el ambiente.Hace botellas para tomar agua en bambú. En madera trabaja lo que es desecho no corta madera. Hace comidas tradicion", "Lugar": null, "Año": "GIGUP 2023", "Coment": "Envió la ubicación", "Anio": 2023 }, "geometry": { "type": "Point", "coordinates": [ -84.800614670521796, 10.649987943409423, 0.0 ] } },
{ "type": "Feature", "properties": { "Name": "Petrona Miranda Tellez", "tessellate": -1, "extrude": 0, "visibility": -1, "Id": 72, "Num": "8734-1698", "Carac_prod": "Siembra de frijoles, tequisque, queso artesanal", "Lugar": "Upala, Alajuela", "Año": "GIGUP 2023 Y 2022", "Coment": "Envio ubicación por whatsapp", "Anio": 2023 }, "geometry": { "type": "Point", "coordinates": [ -85.261083333338036, 11.041027777777261, 0.0 ] } },
{ "type": "Feature", "properties": { "Name": "Vianney Valderramos Romero", "tessellate": -1, "extrude": 0, "visibility": -1, "Id": 81, "Num": "6107-8156", "Carac_prod": "Producción de leche y queso. Siembra de mora y tomáte", "Lugar": "Damita del Guarco", "Año": "GIGUP 2023 Y 2022", "Coment": "Envio ubicación por whatsapp", "Anio": 2023 }, "geometry": { "type": "Point", "coordinates": [ -83.913750000003787, 9.695555555554163, 0.0 ] } },
{ "type": "Feature", "properties": { "Name": "Xinia Ruiz García", "tessellate": -1, "extrude": 0, "visibility": -1, "Id": 82, "Num": "8870-7707", "Carac_prod": "Siembra de frijoles, maíz, arroz,mini huertas,yuca, propia marca de rosquillas, cria de cerdos, gallinas", "Lugar": "Upala, Alajuela", "Año": "GIGUP 2023 Y 2022", "Coment": "Envio ubicación por whatsapp", "Anio": 2023 }, "geometry": { "type": "Point", "coordinates": [ -85.148083333337979, 10.957416666666104, 0.0 ] } },
{ "type": "Feature", "properties": { "Name": "Yadira María Moreno Pérez 1", "tessellate": -1, "extrude": 0, "visibility": -1, "Id": 85, "Num": "8353-9804", "Carac_prod": "Cercas vivas,terneros, árboles frutales, bosque virgen para proteger lasareas, abono orgánico, reforestación de árboles,cuenta con tucanes y loras", "Lugar": "La Rita, San Antonio, Limón", "Año": "GIGUP 2023 Y 2022", "Coment": "Envio ubicación por whatsapp", "Anio": 2023 }, "geometry": { "type": "Point", "coordinates": [ -83.223777777781123, 10.02208333333216, 0.0 ] } },
{ "type": "Feature", "properties": { "Name": "Yadira María Moreno Pérez 2", "tessellate": -1, "extrude": 0, "visibility": -1, "Id": 86, "Num": "8353-9804", "Carac_prod": "Cercas vivas,terneros, árboles frutales, bosque virgen para proteger lasareas, abono orgánico, reforestación de árboles,cuenta con tucanes y loras", "Lugar": "La Rita, San Antonio, Limón", "Año": "GIGUP 2023 Y 2022", "Coment": "Envio ubicación por whatsapp", "Anio": 2023 }, "geometry": { "type": "Point", "coordinates": [ -83.128805555558813, 9.939499999998779, 0.0 ] } },
{ "type": "Feature", "properties": { "Name": "Yasmín López Arias", "tessellate": -1, "extrude": 0, "visibility": -1, "Id": 87, "Num": "8406-1573", "Carac_prod": "Cultivo de maracuya, platano, vainica. Gallinas ponedoras", "Lugar": "Guaycará, Golfito, Puntarenas", "Año": "GIGUP 2023 Y 2022", "Coment": "Envio ubicación por whatsapp", "Anio": 2023 }, "geometry": { "type": "Point", "coordinates": [ -83.037888888892098, 8.733166666664641, 0.0 ] } },
{ "type": "Feature", "properties": { "Name": "Yorleni Laguna Barrios", "tessellate": -1, "extrude": 0, "visibility": -1, "Id": 88, "Num": "8654-8429", "Carac_prod": "Siembra de chile, platano y ctia de animales", "Lugar": "México de Upala, Alajuela", "Año": "GIGUP 2023 Y 2022", "Coment": "Envio ubicación por whatsapp", "Anio": 2023 }, "geometry": { "type": "Point", "coordinates": [ -85.064638888893455, 10.996916666666127, 0.0 ] } },
{ "type": "Feature", "properties": { "Name": "Zeidy Jiménez Tabash", "tessellate": -1, "extrude": 0, "visibility": -1, "Id": 89, "Num": "8559-4047", "Carac_prod": "Tours de tortugas marinas, ecosistemas rocosos(estrellas de mar, crustacios), campañasde limpieza, venta de tablas de sur", "Lugar": "Dominical, Puntarenas", "Año": "GIGUP 2023 Y 2022", "Coment": "Envio ubicación por whatsapp", "Anio": 2023 }, "geometry": { "type": "Point", "coordinates": [ -83.8648055555593, 9.252694444442758, 0.0 ] } },
{ "type": "Feature", "properties": { "Name": "Ana Ligia Castro Albertazzi", "tessellate": -1, "extrude": 0, "visibility": -1, "Id": 2, "Num": "8815-4358", "Carac_prod": "4 ha de bandera azul: plantas medicinaes, especieas curcuma,gengibre,juanilama, morinja, tuberculos, harinas alternativas, huerta casera de hortalizas, abejas.4ha sin bandera: agricultura de tuberculos y graminias, gallinas,", "Lugar": "Siquirres, Limón", "Año": "GIGUP 2023 Y 2022", "Coment": "Envio ubicación por whatsapp", "Anio": 2023 }, "geometry": { "type": "Point", "coordinates": [ -83.59455555555914, 10.105444444443322, 0.0 ] } },
{ "type": "Feature", "properties": { "Name": "Ana Liliam Corrales Rodriguez", "tessellate": -1, "extrude": 0, "visibility": -1, "Id": 3, "Num": "8564-3936", "Carac_prod": "Vacas productoras de leche, cerdos, gallinas ponedoras y de engorde,producción de queso natilla,leche, arboles frutales,arboles en reforestación", "Lugar": "Pococcí Limón", "Año": "GIGUP 2023 Y 2022", "Coment": "Envio ubicación por whatsapp", "Anio": 2023 }, "geometry": { "type": "Point", "coordinates": [ -83.796083333337052, 10.468305555554686, 0.0 ] } },
{ "type": "Feature", "properties": { "Name": "Betsi Barrantes Ramírez", "tessellate": -1, "extrude": 0, "visibility": -1, "Id": 5, "Num": "7212-4284", "Carac_prod": "Reforestación de 3mil árboles, siembra de : granos basicos, pecacuan, asociación de turismo rural", "Lugar": "Cutris, San Carlos", "Año": "GIGUP 2023 Y 2022", "Coment": "Envio ubicación por whatsapp", "Anio": 2023 }, "geometry": { "type": "Point", "coordinates": [ -84.454000000004157, 10.685166666665927, 0.0 ] } },
{ "type": "Feature", "properties": { "Name": "Casilda Jiménez Obando", "tessellate": -1, "extrude": 0, "visibility": -1, "Id": 8, "Num": "8955-0241", "Carac_prod": "Cria de tilapia, cerdo de engorde,maíz,plantas forrageras(alimentación),asociación de consentrado alternativo de animales", "Lugar": "Buenos Aires, Territorio Indígena Rey Curré", "Año": "GIGUP 2023 Y 2022", "Coment": "Envio ubicación por whatsapp", "Anio": 2023 }, "geometry": { "type": "Point", "coordinates": [ -83.366777777781195, 8.955333333331453, 0.0 ] } },
{ "type": "Feature", "properties": { "Name": "Cristina Umaña Elizondo", "tessellate": -1, "extrude": 0, "visibility": -1, "Id": 11, "Num": "8531-2902", "Carac_prod": "Finca en transición organica, siembra de café, mamon, citricos, autosostenible, compostage,gallinas, pollos, obejas, cerdos", "Lugar": "Buenos Aires, Puntarenas", "Año": "GIGUP 2023 Y 2022", "Coment": "Envio ubicación por whatsapp", "Anio": 2023 }, "geometry": { "type": "Point", "coordinates": [ -83.577166666670223, 9.284611111109445, 0.0 ] } },
{ "type": "Feature", "properties": { "Name": "Dara Arguello Larios", "tessellate": -1, "extrude": 0, "visibility": -1, "Id": 14, "Num": "6036-3218", "Carac_prod": "Proyecto de reforestación, ganaderia.Asociación de mujeres: Fincas de cacao en la escuela agroecológica, dan talleres", "Lugar": "Upala, Alajuela", "Año": "GIGUP 2023 Y 2022", "Coment": "Envio ubicación por whatsapp", "Anio": 2023 }, "geometry": { "type": "Point", "coordinates": [ -85.145250000004637, 10.995944444443902, 0.0 ] } },
{ "type": "Feature", "properties": { "Name": "Elena Garita Córdoba", "tessellate": -1, "extrude": 0, "visibility": -1, "Id": 15, "Num": "8857-1352", "Carac_prod": "Producciòn leche de cabra y subproductos de yogurt , helados artesanales de bolaita y queso , ganado de doble propòsito . Seutiliza abono orgànico, insumos naturales de control de plagas", "Lugar": "Matina, Limón", "Año": "GIGUP 2023 Y 2022", "Coment": "Envio ubicación por whatsapp", "Anio": 2023 }, "geometry": { "type": "Point", "coordinates": [ -83.385750000003441, 10.078305555554426, 0.0 ] } },
{ "type": "Feature", "properties": { "Name": "Elizabeth Del Valle", "tessellate": -1, "extrude": 0, "visibility": -1, "Id": 17, "Num": "7190-9994", "Carac_prod": "Reforestación,manejo de biomasa,Asociación de mujeres: harinas de bambu con talleres de (construcción, artesanias), individual: siembra de bambú", "Lugar": "Siquirres, Limón", "Año": "GIGUP 2023 Y 2022", "Coment": "Envio ubicación por whatsapp", "Anio": 2023 }, "geometry": { "type": "Point", "coordinates": [ -83.771888888892576, 10.211972222221169, 0.0 ] } },
{ "type": "Feature", "properties": { "Name": "Estela Miranda Tellez", "tessellate": -1, "extrude": 0, "visibility": -1, "Id": 20, "Num": "8565-2462", "Carac_prod": "Siembra de frijoles, malanga, tiquisque", "Lugar": "Upala, Alajuela", "Año": "GIGUP 2023 Y 2022", "Coment": "Envio ubicación por whatsapp", "Anio": 2023 }, "geometry": { "type": "Point", "coordinates": [ -85.260988208790081, 11.040937172315743, 0.0 ] } },
{ "type": "Feature", "properties": { "Name": "Francia Cerdas Sánchez", "tessellate": -1, "extrude": 0, "visibility": -1, "Id": 27, "Num": "8401-4861", "Carac_prod": "Siembra de cacao, banano,platano, curcuma, gengibre, plantas medicinales, árboles frutales, bambú, frijoles", "Lugar": "Siquirres Pacuarito.", "Año": "GIGUP 2023 Y 2022", "Coment": "Contesto, por relato google earth", "Anio": 2023 }, "geometry": { "type": "Point", "coordinates": [ -83.359478517983419, 10.186580520686149, 0.0 ] } },
{ "type": "Feature", "properties": { "Name": "Jennifer Marín López", "tessellate": -1, "extrude": 0, "visibility": -1, "Id": 40, "Num": "8412-3718", "Carac_prod": "Siembra de plantas ornamentales de crotom para exportación,", "Lugar": "Rio Hondo, Siquirres Limón", "Año": "GIGUP 2023 Y 2022", "Coment": "Envio ubicación por whatsapp", "Anio": 2023 }, "geometry": { "type": "Point", "coordinates": [ -83.415027777781248, 10.085083333332198, 0.0 ] } },
{ "type": "Feature", "properties": { "Name": "Jisett Rocío Vargas Hernández", "tessellate": -1, "extrude": 0, "visibility": -1, "Id": 43, "Num": "8780-9430", "Carac_prod": "Gallinas ponedoras, vacas de cría, siembra de mamón chino, pasto, ha por pago de servicios ambientales de bosques secundario, arboles de cerca viva, uso de compostaje y cuido del agua", "Lugar": "Buenos Aires, Territorio Indígena Rey Curré", "Año": "GIGUP 2023 Y 2022", "Coment": "Envio ubicación por whatsapp", "Anio": 2023 }, "geometry": { "type": "Point", "coordinates": [ -83.807416666670406, 10.48022222222135, 0.0 ] } },
{ "type": "Feature", "properties": { "Name": "Julia Atencio Zapata", "tessellate": -1, "extrude": 0, "visibility": -1, "Id": 45, "Num": "8720-1440", "Carac_prod": "Ganaderia de doble propósito, terneros,lecho,natilla, huevos, limón,proyecto de división de potreros", "Lugar": "Paso Canoas, Puntarenas", "Año": "GIGUP 2023 Y 2022", "Coment": "Envio ubicación por whatsapp", "Anio": 2023 }, "geometry": { "type": "Point", "coordinates": [ -82.855333333336404, 8.584166666664544, 0.0 ] } },
{ "type": "Feature", "properties": { "Name": "Karina Sandi Chavez", "tessellate": -1, "extrude": 0, "visibility": -1, "Id": 46, "Num": "7135-6213", "Carac_prod": "Cria de engorde, cerdos, pollos y terneros", "Lugar": "San Joaquín de Cutris, San Carlos, Alajuela", "Año": "GIGUP 2023 Y 2022", "Coment": "Envio ubicación por whatsapp", "Anio": 2023 }, "geometry": { "type": "Point", "coordinates": [ -84.451361111115276, 10.618694444443669, 0.0 ] } },
{ "type": "Feature", "properties": { "Name": "Karol Méndez Calderón", "tessellate": -1, "extrude": 0, "visibility": -1, "Id": 47, "Num": "8697-6788", "Carac_prod": "Cultivo de lengua suegra de uso medicinal y para limpieza, arboles frutales, animales de pastoreo", "Lugar": "Maleku, Alajuela", "Año": "GIGUP 2023 Y 2022", "Coment": "Envio ubicación por whatsapp", "Anio": 2023 }, "geometry": { "type": "Point", "coordinates": [ -84.787222222226617, 10.641111111110334, 0.0 ] } },
{ "type": "Feature", "properties": { "Name": "Laura Fernández Fernández", "tessellate": -1, "extrude": 0, "visibility": -1, "Id": 48, "Num": "6479-5265", "Carac_prod": "Ganaderia sostenible, cercas vivas", "Lugar": "Territorio Ujarrás", "Año": "GIGUP 2023 Y 2022", "Coment": "Envio ubicación por whatsapp", "Anio": 2023 }, "geometry": { "type": "Point", "coordinates": [ -83.322694444447833, 9.210944444442735, 0.0 ] } },
{ "type": "Feature", "properties": { "Name": "Liliana Esquivel Gónzalez", "tessellate": -1, "extrude": 0, "visibility": -1, "Id": 53, "Num": "8630-4690", "Carac_prod": "Producción de queso, vacas de doble proposito, cercas vivas, sistema silvopastoril, sila de maíz(Le gustaria ser una lecheria sostenible con tours)", "Lugar": "Los Chiles, Alajuela", "Año": "GIGUP 2023 Y 2022", "Coment": "Envio ubicación por whatsapp", "Anio": 2023 }, "geometry": { "type": "Point", "coordinates": [ -84.527028000004208, 10.720445999999283, 0.0 ] } },
{ "type": "Feature", "properties": { "Name": "Margarita Obando Mayorga", "tessellate": -1, "extrude": 0, "visibility": -1, "Id": 58, "Num": "8691-8853", "Carac_prod": "Cercas vivas, invernadero de tomate, pollo de engorde, y ponedoras, árboles frutales,guanabana,mango,medicinales.Trabaja en viveros con semillas para reforestar nacientes", "Lugar": "Buenos Aires, Territorio Indígena Ujarrás", "Año": "GIGUP 2023 Y 2022", "Coment": "Envio ubicación por whatsapp", "Anio": 2023 }, "geometry": { "type": "Point", "coordinates": [ -83.298888888892265, 9.230694444442749, 0.0 ] } },
{ "type": "Feature", "properties": { "Name": "María José Sanchez Castro", "tessellate": -1, "extrude": 0, "visibility": -1, "Id": 60, "Num": "8353-6811", "Carac_prod": "Finca integral, ganado de doble proposito, gallinas,cerdos, árboles frutales, tilapia,uso de biogestores, insecticidas orgánicos", "Lugar": "Siquirres, Limón", "Año": "GIGUP 2023 Y 2022", "Coment": "Ubicación por relato en google earth", "Anio": 2023 }, "geometry": { "type": "Point", "coordinates": [ -83.5872028711279, 10.126705939965737, 0.0 ] } },
{ "type": "Feature", "properties": { "Name": "Maricela Guitiérrez Navas", "tessellate": -1, "extrude": 0, "visibility": -1, "Id": 64, "Num": "8522-0244", "Carac_prod": "Ganado, terneras,producción de jabones artesanales, shampus, cremas todo de plantas medicinales y siembra de frojoles", "Lugar": "Cutris, San Carlos", "Año": "GIGUP 2023 Y 2022", "Coment": "Envio ubicación por whatsapp", "Anio": 2023 }, "geometry": { "type": "Point", "coordinates": [ -85.143500000004622, 10.989472222221671, 0.0 ] } }
]
}
